H1 CPF  1  SGF 2022  2 26  2  5571 larets    
H2  0304206 5557    27944 2022  2 25  0  0  0 2022  3  2 23 57  0   180 1 1  0 0 0
H9
10 0 59638  73080.00000  0    221452.329   6880614.421  -1587182.514
10 0 59638  73260.00000  0    515775.137   7041285.256   -262686.702
10 0 59638  73440.00000  0    792082.940   6938258.363   1071435.659
10 0 59638  73620.00000  0   1033463.429   6576014.370   2366296.885
10 0 59638  73800.00000  0   1224539.085   5968961.508   3574489.326
10 0 59638  73980.00000  0   1352280.100   5140824.425   4651853.670
10 0 59638  74160.00000  0   1406707.388   4123658.102   5559108.392
10 0 59638  74340.00000  0   1381443.216   2956535.710   6263264.314
10 0 59638  74520.00000  0   1274092.440   1683999.356   6738777.574
10 0 59638  74700.00000  0   1086438.236    354334.895   6968427.500
10 0 59638  74880.00000  0    824446.735   -982260.683   6943894.534
10 0 59638  75060.00000  0    498080.315  -2275556.045   6666042.502
10 0 59638  75240.00000  0    120922.705  -3477158.165   6144895.655
10 0 59638  75420.00000  0   -290371.318  -4542317.288   5399302.315
10 0 59638  75600.00000  0   -716779.477  -5431599.480   4456299.720
10 0 59638  75780.00000  0  -1137750.900  -6112388.654   3350193.902
10 0 59638  75960.00000  0  -1532151.505  -6560149.211   2121348.412
10 0 59638  76140.00000  0  -1879270.129  -6759380.060    814723.760
10 0 59638  76320.00000  0  -2159839.068  -6704211.077   -521786.653
10 0 59638  76500.00000  0  -2357008.721  -6398598.528  -1839156.655
10 0 59638  76680.00000  0  -2457227.344  -5856108.853  -3089078.578
10 0 59638  76860.00000  0  -2450980.537  -5099300.138  -4225784.064
10 0 59638  77040.00000  0  -2333348.974  -4158732.933  -5207748.088
10 0 59638  77220.00000  0  -2104358.486  -3071675.263  -5999200.905
10 0 59638  77400.00000  0  -1769111.735  -1880573.614  -6571401.312
10 0 59638  77580.00000  0  -1337695.837   -631358.435  -6903633.404
10 0 59638  77760.00000  0   -824875.583    628339.745  -6983902.352
10 0 59638  77940.00000  0   -249585.351   1850994.868  -6809327.977
10 0 59638  78120.00000  0    365764.360   2990956.785  -6386237.282
10 0 59638  78300.00000  0    996146.601   4006143.136  -5729956.987
10 0 59638  78480.00000  0   1614921.120   4859599.223  -4864298.063
10 0 59638  78660.00000  0   2194943.468   5520871.525  -3820741.963
10 0 59638  78840.00000  0   2709740.634   5967143.304  -2637336.716
10 0 59638  79020.00000  0   3134702.410   6184077.688  -1357331.714
10 0 59638  79200.00000  0   3448232.785   6166324.799    -27590.033
10 0 59638  79380.00000  0   3632797.175   5917655.328   1303161.510
10 0 59638  79560.00000  0   3675810.507   5450711.168   2586162.133
10 0 59638  79740.00000  0   3570320.961   4786390.059   3774448.008
10 0 59638  79920.00000  0   3315452.846   3952891.183   4824603.519
10 0 59638  80100.00000  0   2916586.109   2984479.958   5698355.833
10 0 59638  80280.00000  0   2385263.437   1920036.880   6363946.453
10 0 59638  80460.00000  0   1738849.504    801469.226   6797239.101
10 0 59638  80640.00000  0    999949.671   -327947.594   6982543.746
10 0 59638  80820.00000  0    195614.039  -1425231.885   6913144.778
10 0 59638  81000.00000  0   -643647.749  -2449316.637   6591529.569
10 0 59638  81180.00000  0  -1485012.287  -3362575.346   6029305.420
10 0 59638  81360.00000  0  -2294605.567  -4132200.740   5246811.544
10 0 59638  81540.00000  0  -3038854.824  -4731401.884   4272441.671
10 0 59638  81720.00000  0  -3685888.861  -5140378.229   3141666.702
10 0 59638  81900.00000  0  -4206913.709  -5347019.021   1895773.102
10 0 59638  82080.00000  0  -4577501.026  -5347294.600    580362.266
10 0 59638  82260.00000  0  -4778729.402  -5145314.446   -756339.917
10 0 59638  82440.00000  0  -4798114.520  -4753041.836  -2065296.655
10 0 59638  82620.00000  0  -4630271.281  -4189672.557  -3298517.058
10 0 59638  82800.00000  0  -4277270.245  -3480710.598  -4410861.493
10 0 59638  82980.00000  0  -3748676.521  -2656800.197  -5361714.147
10 0 59638  83160.00000  0  -3061275.383  -1752376.574  -6116458.306
10 0 59638  83340.00000  0  -2238503.902   -804204.814  -6647702.783
10 0 59638  83520.00000  0  -1309617.225    150126.155  -6936226.099
10 0 59638  83700.00000  0   -308629.477   1073688.094  -6971616.584
10 0 59638  83880.00000  0    726927.560   1931625.060  -6752613.556
10 0 59638  84060.00000  0   1757395.614   2692452.949  -6287150.588
10 0 59638  84240.00000  0   2742496.379   3329211.842  -5592093.238
10 0 59638  84420.00000  0   3642899.167   3820429.921  -4692667.974
10 0 59638  84600.00000  0   4421797.654   4150869.039  -3621597.513
10 0 59638  84780.00000  0   5046439.501   4312022.323  -2417950.146
10 0 59638  84960.00000  0   5489534.447   4302333.922  -1125729.538
10 0 59638  85140.00000  0   5730470.206   4127126.697    207745.582
10 0 59638  85320.00000  0   5756270.874   3798238.571   1533607.561
10 0 59638  85500.00000  0   5562247.955   3333381.320   2803276.691
10 0 59638  85680.00000  0   5152303.058   2755254.321   3970287.141
10 0 59638  85860.00000  0   4538866.242   2090462.287   4992016.850
10 0 59638  86040.00000  0   3742483.417   1368297.407   5831242.303
10 0 59638  86220.00000  0   2791079.056    619451.500   6457471.421
10 0 59639      0.00000  0   1718931.330   -125284.165   6848000.847
10 0 59639    180.00000  0    565418.389   -836269.855   6988688.825
10 0 59639    360.00000  0   -626430.801  -1486182.794   6874433.868
10 0 59639    540.00000  0  -1811530.307  -2051056.295   6509343.148
10 0 59639    720.00000  0  -2944420.919  -2511156.905   5906594.522
10 0 59639    900.00000  0  -3980999.132  -2851676.443   5088007.163
10 0 59639   1080.00000  0  -4880249.231  -3063222.643   4083306.342
10 0 59639   1260.00000  0  -5605896.940  -3142079.610   2929087.326
10 0 59639   1440.00000  0  -6127917.950  -3090226.844   1667514.514
10 0 59639   1620.00000  0  -6423834.596  -2915116.673    344784.489
10 0 59639   1800.00000  0  -6479723.522  -2629209.358   -990595.073
10 0 59639   1980.00000  0  -6290876.708  -2249287.770  -2289634.708
10 0 59639   2160.00000  0  -5862070.697  -1795586.187  -3504716.567
10 0 59639   2340.00000  0  -5207436.243  -1290783.766  -4591380.307
10 0 59639   2520.00000  0  -4349941.958   -758916.418  -5509967.111
10 0 59639   2700.00000  0  -3320522.352   -224262.721  -6227056.045
10 0 59639   2880.00000  0  -2156899.534    289740.292  -6716639.931
10 0 59639   3060.00000  0   -902160.765    761500.241  -6961013.883
10 0 59639   3240.00000  0    396849.353   1172153.821  -6951364.511
10 0 59639   3420.00000  0   1691263.637   1506305.648  -6688058.873
10 0 59639   3600.00000  0   2932012.630   1752599.399  -6180636.618
10 0 59639   3780.00000  0   4071675.159   1904104.376  -5447488.893
10 0 59639   3960.00000  0   5066292.685   1958502.785  -4515234.947
10 0 59639   4140.00000  0   5877093.101   1918074.295  -3417805.233
10 0 59639   4320.00000  0   6472050.139   1789474.506  -2195242.835
10 0 59639   4500.00000  0   6827209.791   1583315.444   -892257.114
10 0 59639   4680.00000  0   6927710.685   1313563.967    443428.421
10 0 59639   4860.00000  0   6768435.168    996785.291   1762863.120
10 0 59639   5040.00000  0   6354259.907    651273.282   3017709.081
10 0 59639   5220.00000  0   5699887.929    296109.505   4162057.045
10 0 59639   5400.00000  0   4829272.333    -49794.853   5154128.676
10 0 59639   5580.00000  0   3774674.030   -368623.632   5957796.624
10 0 59639   5760.00000  0   2575402.377   -644504.404   6543869.437
10 0 59639   5940.00000  0   1276307.917   -864239.659   6891102.813
10 0 59639   6120.00000  0    -73911.946  -1017896.824   6986924.125
10 0 59639   6300.00000  0  -1424535.771  -1099234.733   6827851.824
10 0 59639   6480.00000  0  -2724702.975  -1105952.177   6419608.864
10 0 59639   6660.00000  0  -3925306.223  -1039749.267   5776937.008
10 0 59639   6840.00000  0  -4980846.002   -906202.635   4923113.953
10 0 59639   7020.00000  0  -5851184.899   -714459.192   3889162.994
10 0 59639   7200.00000  0  -6503124.152   -476755.106   2712767.948
10 0 59639   7380.00000  0  -6911736.033   -207779.208   1436927.129
10 0 59639   7560.00000  0  -7061390.788     76091.890    108378.455
10 0 59639   7740.00000  0  -6946408.865    357648.255  -1224148.077
10 0 59639   7920.00000  0  -6571297.152    619748.392  -2511769.275
10 0 59639   8100.00000  0  -5950560.507    846218.504  -3707292.625
10 0 59639   8280.00000  0  -5108095.268   1022703.669  -4766989.916
10 0 59639   8460.00000  0  -4076196.467   1137424.243  -5652209.337
10 0 59639   8640.00000  0  -2894246.840   1181799.308  -6330764.681
10 0 59639   8820.00000  0  -1607157.965   1150909.197  -6778061.137
10 0 59639   9000.00000  0   -263633.332   1043782.817  -6977932.472
10 0 59639   9180.00000  0   1085674.915    863499.854  -6923175.403
10 0 59639   9360.00000  0   2390055.776    617105.451  -6615790.138
10 0 59639   9540.00000  0   3600630.640    315338.693  -6066914.402
10 0 59639   9720.00000  0   4672178.075    -27816.283  -5296446.667
10 0 59639   9900.00000  0   5564835.054   -395743.045  -4332371.700
10 0 59639  10080.00000  0   6245621.564   -769947.515  -3209792.718
10 0 59639  10260.00000  0   6689718.220  -1130926.930  -1969686.183
10 0 59639  10440.00000  0   6881437.279  -1459114.557   -657414.733
10 0 59639  10620.00000  0   6814830.563  -1735852.533    678951.721
10 0 59639  10800.00000  0   6493897.756  -1944343.500   1990437.082
10 0 59639  10980.00000  0   5932377.796  -2070530.879   3229003.533
10 0 59639  11160.00000  0   5153133.527  -2103858.298   4349353.050
10 0 59639  11340.00000  0   4187167.211  -2037869.950   5310600.186
10 0 59639  11520.00000  0   3072331.093  -1870623.886   6077754.063
10 0 59639  11700.00000  0   1851793.148  -1604902.868   6622959.710
10 0 59639  11880.00000  0    572334.996  -1248216.316   6926459.943
10 0 59639  12060.00000  0   -717448.895   -812594.408   6977264.168
99
